COSMOS 2550             
1 48865U 21056A   26067.47400841 -.00000192  00000+0 -13338-7 0  9992
2 48865  67.1451  44.6088 0008369 269.6014  90.4182 15.33829151263273
STARLINK-35303          
1 65860U 25223G   26068.88468308  .00031084  00000+0  10570-2 0  9996
2 65860  53.1601 293.4015 0000871 102.6986 257.4112 15.30208014 24232
